ONEWEB-0218             
1 48214U 21031E   23059.00319073 -.00000001  00000+0 -38036-4 0  9994
2 48214  87.9128 169.4239 0001670 153.1673 206.9544 13.14504149 90045
ONEWEB-0218             
1 48214U 21031E   23059.38377930  .00000100  00000+0  23628-3 0  9999
2 48214  87.9128 169.3487 0001704 153.1169 207.0049 13.14504334 90090
ONEWEB-0218             
1 48214U 21031E   23059.84048729  .00000039  00000+0  71618-4 0  9995
2 48214  87.9128 169.2585 0001718 152.7526 207.3695 13.14503203 90156
ONEWEB-0218             
1 48214U 21031E   23060.29719290  .00000208  00000+0  52742-3 0  9998
2 48214  87.9127 169.1683 0001757 151.9642 208.1582 13.14504289 90212
ONEWEB-0218             
1 48214U 21031E   23060.83001780  .00000157  00000+0  38942-3 0  9995
2 48214  87.9128 169.0631 0001804 151.4036 208.7193 13.14503968 90284
ONEWEB-0218             
1 48214U 21031E   23061.81954842  .00000178  00000+0  44668-3 0  9995
2 48214  87.9128 168.8678 0001872 150.7478 209.3756 13.14503626 90417
ONEWEB-0218             
1 48214U 21031E   23062.35237087  .00000310  00000+0  80047-3 0  9999
2 48214  87.9130 168.7625 0001925 150.1976 209.9264 13.14504897 90485
